sat04640
1 04640U 70025Y   20046.89594514  .00000045  00000-0  16075-3 0  9996
2 04640  99.8358 187.4800 0122604 129.2910 359.0558 13.37251022422723
